QIANFAN-81              
1 63167U 25046J   25330.93571654  .00000123  00000+0  17181-3 0  9999
2 63167  88.9753 321.5092 0015137 159.5502 200.6259 13.50997633 45358
QIANFAN-82              
1 63168U 25046K   25330.89539492  .00000089  00000+0  11964-3 0  9993
2 63168  88.9753 321.5571 0013048 166.4462 193.7042 13.50977150 45334
QIANFAN-83              
1 63169U 25046L   25330.90344863  .00000073  00000+0  78223-4 0  9997
2 63169  88.9754 321.3637 0014772 153.5038 206.6877 13.61970194 45443
QIANFAN-84              
1 63170U 25046M   25330.92333509 -.00000027  00000+0 -60374-4 0  9995
2 63170  88.9747 321.6871 0016093 164.5210 195.6436 13.50985453 45262
QIANFAN-85              
1 63171U 25046N   25330.91996487  .00000093  00000+0  12540-3 0  9997
2 63171  88.9753 321.5591 0013421 165.5109 194.6430 13.50982198 45332
QIANFAN-86              
1 63172U 25046P   25330.92829578  .00000109  00000+0  14965-3 0  9996
2 63172  88.9755 321.4200 0011198 168.1799 191.9617 13.50978991 45416
QIANFAN-87              
1 63173U 25046Q   25330.89960338  .00000059  00000+0  73118-4 0  9993
2 63173  88.9751 321.5353 0011990 163.9657 196.1876 13.50971268 45345
QIANFAN-88              
1 63174U 25046R   25330.91600172  .00000085  00000+0  11235-3 0  9994
2 63174  88.9753 321.4877 0012131 172.0116 188.1231 13.50976537 45370
